STARLINK-4112           
1 52861U 22062AH  26068.26255036 -.00001134  00000+0 -53181-4 0  9997
2 52861  53.2190  26.0484 0001247  90.2901 269.8234 15.08828528205865
LEMUR-2-MARHISYAM       
1 60536U 24149BW  26068.74036894  .00013075  00000+0  82973-3 0  9990
2 60536  97.6912 151.2662 0003578 107.3271 252.8349 15.09015520 85478
